NORAD_CAT_ID,OBJECT_NAME,OBJECT_TYPE,EPOCH,MEAN_MOTION,ECCENTRICITY,INCLINATION,RA_OF_ASC_NODE,ARG_OF_PERICENTER,MEAN_ANOMALY,BSTAR,MEAN_MOTION_DOT,MEAN_MOTION_DDOT,TLE_LINE0,TLE_LINE1,TLE_LINE2,SEMIMAJOR_AXIS,PERIOD,APOGEE,PERIGEE,DECAYED
54781.0,STARLINK-5443,PAYLOAD,2023-03-17 17:24:54,15.07200897,0.0001391,53.2159,232.4926,72.6226,287.4918,2.7995e-05,1.43e-06,0.0,0 STARLINK-5443,1 54781U 22175Z   23076.72563318  .00000143  00000-0  27995-4 0  9999,2 54781  53.2159 232.4926 0001391  72.6226 287.4918 15.07200897 13731,6922.895,95.541,545.723,543.797,0.0
54781.0,STARLINK-5443,PAYLOAD,2023-03-18 18:52:43,15.07213085,0.000127,53.2168,227.7413,71.5022,288.6108,0.00019932,2.753e-05,0.0,0 STARLINK-5443,1 54781U 22175Z   23077.78661210  .00002753  00000-0  19932-3 0  9996,2 54781  53.2168 227.7413 0001270  71.5022 288.6108 15.07213085 13891,6922.858,95.541,545.602,543.843,0.0
54781.0,STARLINK-5443,PAYLOAD,2023-03-19 02:50:10,15.07202192,0.0001389,53.2173,226.2564,73.909,286.2054,0.00011042,1.398e-05,0.0,0 STARLINK-5443,1 54781U 22175Z   23078.11818160  .00001398  00000-0  11042-3 0  9990,2 54781  53.2173 226.2564 0001389  73.9090 286.2054 15.07202192 13947,6922.891,95.541,545.718,543.794,0.0
54781.0,STARLINK-5443,PAYLOAD,2023-03-19 13:58:36,15.07203402,0.0001646,53.2165,224.1783,80.5466,279.5712,3.2147e-05,2.06e-06,0.0,0 STARLINK-5443,1 54781U 22175Z   23078.58236817  .00000206  00000-0  32147-4 0  9991,2 54781  53.2165 224.1783 0001646  80.5466 279.5712 15.07203402 16174,6922.887,95.541,545.892,543.613,0.0
54781.0,STARLINK-5443,PAYLOAD,2023-03-19 18:45:04,15.07207025,0.0001282,53.2175,223.288,71.6902,288.4229,4.6732e-05,4.28e-06,0.0,0 STARLINK-5443,1 54781U 22175Z   23078.78130084  .00000428  00000-0  46732-4 0  9993,2 54781  53.2175 223.2880 0001282  71.6902 288.4229 15.07207025 16206,6922.876,95.541,545.629,543.854,0.0
54781.0,STARLINK-5443,PAYLOAD,2023-03-20 02:42:30,15.07214646,0.0001034,53.2173,221.8044,78.3836,281.7271,-9.6192e-05,-1.747e-05,0.0,0 STARLINK-5443,1 54781U 22175Z   23079.11285796 -.00001747  00000-0 -96192-4 0  9994,2 54781  53.2173 221.8044 0001034  78.3836 281.7271 15.07214646 16250,6922.853,95.54,545.434,544.002,0.0
54781.0,STARLINK-5443,PAYLOAD,2023-03-20 15:26:25,15.07209743,0.0001319,53.2173,219.4271,88.2824,271.8319,-3.867e-05,-8.72e-06,0.0,0 STARLINK-5443,1 54781U 22175Z   23079.64335475 -.00000872  00000-0 -38670-4 0  9997,2 54781  53.2173 219.4271 0001319  88.2824 271.8319 15.07209743 14172,6922.868,95.541,545.646,543.82,0.0
54781.0,STARLINK-5443,PAYLOAD,2023-03-21 02:34:51,15.07203796,9.13e-05,53.2176,217.349,86.8143,273.2953,-0.00015624,-2.66e-05,0.0,0 STARLINK-5443,1 54781U 22175Z   23080.10754022 -.00002660  00000-0 -15624-3 0  9993,2 54781  53.2176 217.3490 0000913  86.8143 273.2953 15.07203796 14242,6922.886,95.541,545.383,544.119,0.0
54781.0,STARLINK-5443,PAYLOAD,2023-03-21 20:05:13,15.07217705,0.0001773,53.217,214.0816,89.7676,270.3519,9.4353e-05,1.153e-05,0.0,0 STARLINK-5443,1 54781U 22175Z   23080.83695650  .00001153  00000-0  94353-4 0  9995,2 54781  53.2170 214.0816 0001773  89.7676 270.3519 15.07217705 16513,6922.844,95.54,545.936,543.481,0.0
54781.0,STARLINK-5443,PAYLOAD,2023-03-22 12:00:07,15.07197594,0.0001334,53.2174,211.1151,91.5987,268.5158,-2.508e-05,-6.65e-06,0.0,0 STARLINK-5443,1 54781U 22175Z   23081.50009167 -.00000665  00000-0 -25080-4 0  9992,2 54781  53.2174 211.1151 0001334  91.5987 268.5158 15.07197594 14458,6922.905,95.542,545.694,543.847,0.0
54781.0,STARLINK-5443,PAYLOAD,2023-03-22 15:11:06,15.07206782,0.0001417,53.2173,210.5216,89.168,270.9474,-4.5594e-05,-9.77e-06,0.0,0 STARLINK-5443,1 54781U 22175Z   23081.63271105 -.00000977  00000-0 -45594-4 0  9997,2 54781  53.2173 210.5216 0001417  89.1680 270.9474 15.07206782 14477,6922.877,95.541,545.723,543.761,0.0
54781.0,STARLINK-5443,PAYLOAD,2023-03-22 19:57:32,15.0722123,0.000138,53.2178,209.6258,127.2511,232.8607,4.7407e-05,4.39e-06,0.0,0 STARLINK-5443,1 54781U 22175Z   23081.83163024  .00000439  00000-0  47407-4 0  9995,2 54781  53.2178 209.6258 0001380 127.2511 232.8607 15.07221230 14507,6922.833,95.54,545.653,543.742,0.0
54781.0,STARLINK-5443,PAYLOAD,2023-03-23 11:52:28,15.07203866,0.0001924,53.217,206.6593,100.6857,259.4351,-5.0153e-05,-1.047e-05,0.0,0 STARLINK-5443,1 54781U 22175Z   23082.49476877 -.00001047  00000-0 -50153-4 0  9991,2 54781  53.2170 206.6593 0001924 100.6857 259.4351 15.07203866 14607,6922.886,95.541,546.083,543.419,0.0
54781.0,STARLINK-5443,PAYLOAD,2023-03-23 13:27:57,15.07205033,0.000158,53.2167,206.3634,82.1848,277.9323,6.3807e-06,-1.86e-06,0.0,0 STARLINK-5443,1 54781U 22175Z   23082.56107871 -.00000186  00000-0  63807-5 0  9997,2 54781  53.2167 206.3634 0001580  82.1848 277.9323 15.07205033 16770,6922.882,95.541,545.841,543.654,0.0
54781.0,STARLINK-5443,PAYLOAD,2023-03-23 15:03:25,15.07221577,0.0001305,53.2175,206.0639,98.706,261.408,6.8814e-07,-2.73e-06,0.0,0 STARLINK-5443,1 54781U 22175Z   23082.62737877 -.00000273  00000-0  68814-6 0  9990,2 54781  53.2175 206.0639 0001305  98.7060 261.4080 15.07221577 14626,6922.832,95.54,545.6,543.793,0.0
54781.0,STARLINK-5443,PAYLOAD,2023-03-24 11:44:45,15.07231885,0.0001464,53.2177,202.2083,93.0395,267.0764,0.00035422,5.116e-05,0.0,0 STARLINK-5443,1 54781U 22175Z   23083.48941166  .00005116  00000-0  35422-3 0  9999,2 54781  53.2177 202.2083 0001464  93.0395 267.0764 15.07231885 14752,6922.8,95.539,545.679,543.652,0.0
54781.0,STARLINK-5443,PAYLOAD,2023-03-24 13:20:13,15.07250898,0.0001804,53.2179,201.9085,117.0396,243.078,0.00045795,6.703e-05,0.0,0 STARLINK-5443,1 54781U 22175Z   23083.55570751  .00006703  00000-0  45795-3 0  9992,2 54781  53.2179 201.9085 0001804 117.0396 243.0780 15.07250898 14766,6922.742,95.538,545.856,543.358,0.0
54781.0,STARLINK-5443,PAYLOAD,2023-03-24 18:06:39,15.07268683,0.0001244,53.2176,201.0157,101.0771,259.036,0.00044997,6.584e-05,0.0,0 STARLINK-5443,1 54781U 22175Z   23083.75462478  .00006584  00000-0  44997-3 0  9990,2 54781  53.2176 201.0157 0001244 101.0771 259.0360 15.07268683 14797,6922.687,95.537,545.414,543.691,0.0
54781.0,STARLINK-5443,PAYLOAD,2023-03-25 00:28:42,15.071906,0.0001914,53.2177,199.8306,83.9067,276.2143,-0.00026346,-4.29e-05,0.0,0 STARLINK-5443,1 54781U 22175Z   23084.01994170 -.00004290  00000-0 -26346-3 0  9991,2 54781  53.2177 199.8306 0001914  83.9067 276.2143 15.07190600 14836,6922.927,95.542,546.117,543.466,0.0
54781.0,STARLINK-5443,PAYLOAD,2023-03-25 11:37:14,15.07122842,0.0001437,53.2175,197.7544,88.9888,271.1268,-0.00063951,-9.983e-05,0.0,0 STARLINK-5443,1 54781U 22175Z   23084.48419333 -.00009983  00000-0 -63951-3 0  9992,2 54781  53.2175 197.7544 0001437  88.9888 271.1268 15.07122842 14904,6923.134,95.546,545.994,544.004,0.0
54781.0,STARLINK-5443,PAYLOAD,2023-03-25 16:23:42,15.071345,0.0001145,53.2176,196.8618,96.8859,263.2262,-0.00051938,-8.165e-05,0.0,0 STARLINK-5443,1 54781U 22175Z   23084.68312569 -.00008165  00000-0 -51938-3 0  9990,2 54781  53.2176 196.8618 0001145  96.8859 263.2262 15.07134500 14932,6923.098,95.546,545.756,544.171,0.0
54781.0,STARLINK-5443,PAYLOAD,2023-03-26 00:21:06,15.07180067,0.0001148,53.2182,195.3798,99.0524,261.0597,-0.00017918,-3.008e-05,0.0,0 STARLINK-5443,1 54781U 22175Z   23085.01465522 -.00003008  00000-0 -17918-3 0  9997,2 54781  53.2182 195.3798 0001148  99.0524 261.0597 15.07180067 14980,6922.959,95.543,545.619,544.029,0.0
54781.0,STARLINK-5443,PAYLOAD,2023-03-26 11:29:28,15.07227007,0.0001275,53.2177,193.3013,83.5624,276.5512,1.7018e-05,-2.4e-07,0.0,0 STARLINK-5443,1 54781U 22175Z   23085.47880474 -.00000024  00000-0  17018-4 0  9990,2 54781  53.2177 193.3013 0001275  83.5624 276.5512 15.07227007 15055,6922.815,95.54,545.563,543.797,0.0
54781.0,STARLINK-5443,PAYLOAD,2023-03-26 14:40:26,15.07239114,0.0001629,53.219,192.7067,93.9795,266.1383,-3.4754e-05,-8.13e-06,0.0,0 STARLINK-5443,1 54781U 22175Z   23085.61142179 -.00000813  00000-0 -34754-4 0  9992,2 54781  53.2190 192.7067 0001629  93.9795 266.1383 15.07239114 15074,6922.778,95.539,545.771,543.515,0.0
54781.0,STARLINK-5443,PAYLOAD,2023-03-26 19:26:53,15.07253438,0.0001255,53.218,191.8126,109.208,250.9047,2.2317e-05,5.7e-07,0.0,0 STARLINK-5443,1 54781U 22175Z   23085.81034134  .00000057  00000-0  22317-4 0  9995,2 54781  53.2180 191.8126 0001255 109.2080 250.9047 15.07253438 17268,6922.734,95.538,545.468,543.73,0.0
54781.0,STARLINK-5443,PAYLOAD,2023-03-27 06:35:23,15.07154375,9.74e-05,53.2187,189.738,64.0725,296.0367,0.00067766,0.00010033,0.0,0 STARLINK-5443,1 54781U 22175Z   23086.27457223  .00010033  00000-0  67766-3 0  9995,2 54781  53.2187 189.7380 0000974  64.0725 296.0367 15.07154375 15178,6923.037,95.544,545.577,544.228,0.0
54781.0,STARLINK-5443,PAYLOAD,2023-03-27 14:32:48,15.07188788,0.0001154,53.2186,188.2495,97.8227,262.2896,0.00076424,0.00011364,0.0,0 STARLINK-5443,1 54781U 22175Z   23086.60611490  .00011364  00000-0  76424-3 0  9999,2 54781  53.2186 188.2495 0001154  97.8227 262.2896 15.07188788 17382,6922.932,95.542,545.596,543.998,0.0
54781.0,STARLINK-5443,PAYLOAD,2023-03-28 00:05:45,15.07184822,0.0001331,53.2177,186.4724,82.8134,277.3008,0.00061674,9.112e-05,0.0,0 STARLINK-5443,1 54781U 22175Z   23087.00399813  .00009112  00000-0  61674-3 0  9995,2 54781  53.2177 186.4724 0001331  82.8134 277.3008 15.07184822 15289,6922.944,95.542,545.731,543.888,0.0
54781.0,STARLINK-5443,PAYLOAD,2023-03-28 11:14:10,15.07221067,0.0001471,53.2187,184.3919,89.0751,271.0409,-9.7292e-05,-1.765e-05,0.0,0 STARLINK-5443,1 54781U 22175Z   23087.46817364 -.00001765  00000-0 -97292-4 0  9995,2 54781  53.2187 184.3919 0001471  89.0751 271.0409 15.07221067 15359,6922.833,95.54,545.717,543.68,0.0
54781.0,STARLINK-5443,PAYLOAD,2023-03-28 12:49:39,15.07229712,0.000138,53.2185,184.0919,98.2523,261.8625,-0.00017185,-2.9e-05,0.0,0 STARLINK-5443,1 54781U 22175Z   23087.53448022 -.00002900  00000-0 -17185-3 0  9998,2 54781  53.2185 184.0919 0001380  98.2523 261.8625 15.07229712 17525,6922.807,95.54,545.627,543.716,0.0
